$$SOE
2460147.500000000, A.D. 2023-Jul-22 00:00:00.0000, -5.599409653537302E+09, -4.889139216844419E+08, 1.576930209499312E+09,
2460154.500000000, A.D. 2023-Jul-29 00:00:00.0000, -5.599111860674414E+09, -4.917462537141193E+08, 1.577988690209800E+09,
2460161.500000000, A.D. 2023-Aug-05 00:00:00.0000, -5.598812784646848E+09, -4.945784911434202E+08, 1.579046787888826E+09,
2460168.500000000, A.D. 2023-Aug-12 00:00:00.0000, -5.598512427992334E+09, -4.974106352589473E+08, 1.580104502474576E+09,
2460175.500000000, A.D. 2023-Aug-19 00:00:00.0000, -5.598210792944176E+09, -5.002426878361514E+08, 1.581161833875224E+09,
2460182.500000000, A.D. 2023-Aug-26 00:00:00.0000, -5.597907881430518E+09, -5.030746510493330E+08, 1.582218781975013E+09,
2460189.500000000, A.D. 2023-Sep-02 00:00:00.0000, -5.597603695096590E+09, -5.059065274529601E+08, 1.583275346635672E+09,
2460196.500000000, A.D. 2023-Sep-09 00:00:00.0000, -5.597298235313343E+09, -5.087383200755191E+08, 1.584331527686474E+09,
2460203.500000000, A.D. 2023-Sep-16 00:00:00.0000, -5.596991503004018E+09, -5.115700326839034E+08, 1.585387324882802E+09,
2460210.500000000, A.D. 2023-Sep-23 00:00:00.0000, -5.596683497872267E+09, -5.144016699315583E+08, 1.586442737818540E+09,
2460217.500000000, A.D. 2023-Sep-30 00:00:00.0000, -5.596374217371380E+09, -5.172332361996632E+08, 1.587497765920821E+09,
2460224.500000000, A.D. 2023-Oct-07 00:00:00.0000, -5.596063657768355E+09, -5.200647336741719E+08, 1.588552408698823E+09,
2460231.500000000, A.D. 2023-Oct-14 00:00:00.0000, -5.595751816262896E+09, -5.228961629718824E+08, 1.589606665880607E+09,
2460238.500000000, A.D. 2023-Oct-21 00:00:00.0000, -5.595438690932784E+09, -5.257275247128156E+08, 1.590660537273048E+09,
2460245.500000000, A.D. 2023-Oct-28 00:00:00.0000, -5.595124279929938E+09, -5.285588197787791E+08, 1.591714022660429E+09,
2460252.500000000, A.D. 2023-Nov-04 00:00:00.0000, -5.594808581177195E+09, -5.313900490285097E+08, 1.592767121793645E+09,
2460259.500000000, A.D. 2023-Nov-11 00:00:00.0000, -5.594491592388260E+09, -5.342212130692691E+08, 1.593819834404987E+09,
2460266.500000000, A.D. 2023-Nov-18 00:00:00.0000, -5.594173311191339E+09, -5.370523121492018E+08, 1.594872160223343E+09,
2460273.500000000, A.D. 2023-Nov-25 00:00:00.0000, -5.593853735283587E+09, -5.398833461478940E+08, 1.595924098985239E+09,
2460280.500000000, A.D. 2023-Dec-02 00:00:00.0000, -5.593532862588234E+09, -5.427143146763313E+08, 1.596975650438367E+09,
2460287.500000000, A.D. 2023-Dec-09 00:00:00.0000, -5.593210691336514E+09, -5.455452173451636E+08, 1.598026814325781E+09,
2460294.500000000, A.D. 2023-Dec-16 00:00:00.0000, -5.592887219786910E+09, -5.483760541887161E+08, 1.599077590325440E+09,
2460301.500000000, A.D. 2023-Dec-23 00:00:00.0000, -5.592562445233204E+09, -5.512068255572999E+08, 1.600127977969281E+09,
2460308.500000000, A.D. 2023-Dec-30 00:00:00.0000, -5.592236363641575E+09, -5.540375304285630E+08, 1.601177976750378E+09,
2460315.500000000, A.D. 2024-Jan-06 00:00:00.0000, -5.591908971689215E+09, -5.568681654986062E+08, 1.602227586387675E+09,
2460322.500000000, A.D. 2024-Jan-13 00:00:00.0000, -5.591580268031702E+09, -5.596987268597615E+08, 1.603276806809375E+09,
2460329.500000000, A.D. 2024-Jan-20 00:00:00.0000, -5.591250252575555E+09, -5.625292111804568E+08, 1.604325637994608E+09,
2460336.500000000, A.D. 2024-Jan-27 00:00:00.0000, -5.590918925784739E+09, -5.653596157349690E+08, 1.605374079912484E+09,
2460343.500000000, A.D. 2024-Feb-03 00:00:00.0000, -5.590586288449483E+09, -5.681899382316834E+08, 1.606422132520086E+09,
2460350.500000000, A.D. 2024-Feb-10 00:00:00.0000, -5.590252341640038E+09, -5.710201767309742E+08, 1.607469795769941E+09,
2460357.500000000, A.D. 2024-Feb-17 00:00:00.0000, -5.589917086706680E+09, -5.738503296447852E+08, 1.608517069614734E+09,
2460364.500000000, A.D. 2024-Feb-24 00:00:00.0000, -5.589580525290030E+09, -5.766803958031175E+08, 1.609563954007013E+09,
2460371.500000000, A.D. 2024-Mar-02 00:00:00.0000, -5.589242659312331E+09, -5.795103746199446E+08, 1.610610448888446E+09,
2460378.500000000, A.D. 2024-Mar-09 00:00:00.0000, -5.588903490810875E+09, -5.823402664214121E+08, 1.611656554150666E+09,
2460385.500000000, A.D. 2024-Mar-16 00:00:00.0000, -5.588563021218288E+09, -5.851700727390571E+08, 1.612702269547529E+09,
2460392.500000000, A.D. 2024-Mar-23 00:00:00.0000, -5.588221250193230E+09, -5.879997954590032E+08, 1.613747594658854E+09,
2460399.500000000, A.D. 2024-Mar-30 00:00:00.0000, -5.587878176242667E+09, -5.908294348539201E+08, 1.614792529109032E+09,
2460406.500000000, A.D. 2024-Apr-06 00:00:00.0000, -5.587533798879690E+09, -5.936589898653672E+08, 1.615837072741786E+09,
2460413.500000000, A.D. 2024-Apr-13 00:00:00.0000, -5.587188118765729E+09, -5.964884598000896E+08, 1.616881225493718E+09,
2460420.500000000, A.D. 2024-Apr-20 00:00:00.0000, -5.586841136789322E+09, -5.993178447636204E+08, 1.617924987272738E+09,
2460427.500000000, A.D. 2024-Apr-27 00:00:00.0000, -5.586492853598461E+09, -6.021471453925562E+08, 1.618968357934684E+09,
2460434.500000000, A.D. 2024-May-04 00:00:00.0000, -5.586143269498594E+09, -6.049763625888200E+08, 1.620011337292631E+09,
2460441.500000000, A.D. 2024-May-11 00:00:00.0000, -5.585792384477933E+09, -6.078054973575292E+08, 1.621053925128836E+09,
2460448.500000000, A.D. 2024-May-18 00:00:00.0000, -5.585440198278111E+09, -6.106345507265741E+08, 1.622096121203682E+09,
2460455.500000000, A.D. 2024-May-25 00:00:00.0000, -5.585086710485435E+09, -6.134635237547121E+08, 1.623137925258965E+09,
2460462.500000000, A.D. 2024-Jun-01 00:00:00.0000, -5.584731920582903E+09, -6.162924176852859E+08, 1.624179337005551E+09,
2460469.500000000, A.D. 2024-Jun-08 00:00:00.0000, -5.584375827716636E+09, -6.191212342681954E+08, 1.625220356071188E+09,
2460476.500000000, A.D. 2024-Jun-15 00:00:00.0000, -5.584018429777180E+09, -6.219499757047789E+08, 1.626260981916616E+09,
2460483.500000000, A.D. 2024-Jun-22 00:00:00.0000, -5.583659722800919E+09, -6.247786430402076E+08, 1.627301213908514E+09,
2460490.500000000, A.D. 2024-Jun-29 00:00:00.0000, -5.583299702813202E+09, -6.276072348240142E+08, 1.628341051595309E+09,
2460497.500000000, A.D. 2024-Jul-06 00:00:00.0000, -5.582938367468220E+09, -6.304357485097259E+08, 1.629380494741540E+09,
2460504.500000000, A.D. 2024-Jul-13 00:00:00.0000, -5.582575715536331E+09, -6.332641817693980E+08, 1.630419543172928E+09,
2460511.500000000, A.D. 2024-Jul-20 00:00:00.0000, -5.582211746224543E+09, -6.360925325743167E+08, 1.631458196708247E+09,
2460518.500000000, A.D. 2024-Jul-27 00:00:00.0000, -5.581846458986097E+09, -6.389207990012740E+08, 1.632496455159761E+09,
2460525.500000000, A.D. 2024-Aug-03 00:00:00.0000, -5.581479853546261E+09, -6.417489791392735E+08, 1.633534318346501E+09,
2460532.500000000, A.D. 2024-Aug-10 00:00:00.0000, -5.581111929978530E+09, -6.445770711009295E+08, 1.634571786104641E+09,
2460539.500000000, A.D. 2024-Aug-17 00:00:00.0000, -5.580742688783925E+09, -6.474050731165439E+08, 1.635608858292248E+09,
2460546.500000000, A.D. 2024-Aug-24 00:00:00.0000, -5.580372130945544E+09, -6.502329837327592E+08, 1.636645534783765E+09,
2460553.500000000, A.D. 2024-Aug-31 00:00:00.0000, -5.580000257842738E+09, -6.530608021768953E+08, 1.637681815438359E+09,
2460560.500000000, A.D. 2024-Sep-07 00:00:00.0000, -5.579627070659430E+09, -6.558885287602459E+08, 1.638717700018671E+09,
2460567.500000000, A.D. 2024-Sep-14 00:00:00.0000, -5.579252569201314E+09, -6.587161643241692E+08, 1.639753188133282E+09,
2460574.500000000, A.D. 2024-Sep-21 00:00:00.0000, -5.578876752150774E+09, -6.615437083161347E+08, 1.640788279422493E+09,
2460581.500000000, A.D. 2024-Sep-28 00:00:00.0000, -5.578499619247015E+09, -6.643711587232251E+08, 1.641822973768163E+09,
2460588.500000000, A.D. 2024-Oct-05 00:00:00.0000, -5.578121171721702E+09, -6.671985138612684E+08, 1.642857271191039E+09,
2460595.500000000, A.D. 2024-Oct-12 00:00:00.0000, -5.577741411350738E+09, -6.700257730393755E+08, 1.643891171712062E+09,
2460602.500000000, A.D. 2024-Oct-19 00:00:00.0000, -5.577360339873083E+09, -6.728529363705533E+08, 1.644924675316094E+09,
2460609.500000000, A.D. 2024-Oct-26 00:00:00.0000, -5.576977958808983E+09, -6.756800045295994E+08, 1.645957781955503E+09,
2460616.500000000, A.D. 2024-Nov-02 00:00:00.0000, -5.576594269420135E+09, -6.785069786064290E+08, 1.646990491557892E+09,
2460623.500000000, A.D. 2024-Nov-09 00:00:00.0000, -5.576209272715102E+09, -6.813338600338497E+08, 1.648022804030838E+09,
2460630.500000000, A.D. 2024-Nov-16 00:00:00.0000, -5.575822969473869E+09, -6.841606505892292E+08, 1.649054719261316E+09,
2460637.500000000, A.D. 2024-Nov-23 00:00:00.0000, -5.575435360244496E+09, -6.869873525196705E+08, 1.650086237101519E+09,
2460644.500000000, A.D. 2024-Nov-30 00:00:00.0000, -5.575046445103434E+09, -6.898139688330846E+08, 1.651117357318543E+09,
2460651.500000000, A.D. 2024-Dec-07 00:00:00.0000, -5.574656222759936E+09, -6.926405033343196E+08, 1.652148079503937E+09,
2460658.500000000, A.D. 2024-Dec-14 00:00:00.0000, -5.574264689693125E+09, -6.954669591821884E+08, 1.653178403106460E+09,
2460665.500000000, A.D. 2024-Dec-21 00:00:00.0000, -5.573871841640172E+09, -6.982933372080340E+08, 1.654208327699415E+09,
2460672.500000000, A.D. 2024-Dec-28 00:00:00.0000, -5.573477675463117E+09, -7.011196369630750E+08, 1.655237853059352E+09,
2460679.500000000, A.D. 2025-Jan-04 00:00:00.0000, -5.573082188796970E+09, -7.039458581182847E+08, 1.656266979012298E+09,
2460686.500000000, A.D. 2025-Jan-11 00:00:00.0000, -5.572685379300333E+09, -7.067720005569228E+08, 1.657295705350441E+09,
2460693.500000000, A.D. 2025-Jan-18 00:00:00.0000, -5.572287244425308E+09, -7.095980640784981E+08, 1.658324031828532E+09,
2460700.500000000, A.D. 2025-Jan-25 00:00:00.0000, -5.571887781463103E+09, -7.124240481886909E+08, 1.659351958179160E+09,
2460707.500000000, A.D. 2025-Feb-01 00:00:00.0000, -5.571486987675676E+09, -7.152499520053619E+08, 1.660379484127321E+09,
$$EOE